NUSAT-49 (KLARA DAN VO*)
1 60500U 24149AJ  26068.79810190  .00012912  00000+0  43568-3 0  9991
2 60500  97.3807 150.7380 0001132 286.7761  73.3356 15.30828857 86935
STARLINK-34082          
1 64100U 25110E   26068.26351690  .00074099  00000+0  24869-2 0  9993
2 64100  53.1606  29.0081 0001330 118.3143 241.7992 15.30228884 45815
